{
  "type": "FeatureCollection",
  "features": [
    {
      "type": "Feature",
      "properties": {
        "norad_id": 28899,
        "name": "INMARSAT 4-F2 (SOUTHPAN/PRN 122)",
        "group": "gnss",
        "lat": -4.805161081054125,
        "lon": -39.39562500718535,
        "alt_km": 35781.62592917394,
        "timestamp": "2025-12-03T06:58:43.477737+00:00",
        "meta_object_name": "INMARSAT 4-F2 (SOUTHPAN/PRN 122)",
        "meta_object_id": "2005-044A",
        "meta_epoch": "2025-12-02T16:07:28.759296",
        "meta_mean_motion": 1.00271077,
        "meta_eccentricity": 0.0003419,
        "meta_inclination": 4.838,
        "meta_ra_of_asc_node": 43.6557,
        "meta_arg_of_pericenter": 208.5779,
        "meta_mean_anomaly": 204.9087,
        "meta_ephemeris_type": 0,
        "meta_classification_type": "U",
        "meta_norad_cat_id": 28899,
        "meta_element_set_no": 999,
        "meta_rev_at_epoch": 7355,
        "meta_bstar": 0,
        "meta_mean_motion_dot": -2.43e-06,
        "meta_mean_motion_ddot": 0,
        "tle_line1": "1 28899U 05044A   25336.67186064 -.00000243  00000+0  00000+0 0  9994",
        "tle_line2": "2 28899   4.8380  43.6557 0003419 208.5779 204.9087  1.00271077 73551"
      },
      "geometry": {
        "type": "Point",
        "coordinates": [
          -39.39562500718535,
          -4.805161081054125
        ]
      }
    },
    {
      "type": "Feature",
      "properties": {
        "norad_id": 29486,
        "name": "GPS BIIRM-2 (PRN 31)",
        "group": "gnss",
        "lat": 5.693207723124763,
        "lon": -24.941917089589648,
        "alt_km": 20328.09227079739,
        "timestamp": "2025-12-03T06:58:43.477755+00:00",
        "meta_object_name": "GPS BIIRM-2 (PRN 31)",
        "meta_object_id": "2006-042A",
        "meta_epoch": "2025-12-02T13:41:33.602784",
        "meta_mean_motion": 2.00554444,
        "meta_eccentricity": 0.0107363,
        "meta_inclination": 54.6926,
        "meta_ra_of_asc_node": 159.1445,
        "meta_arg_of_pericenter": 51.7169,
        "meta_mean_anomaly": 320.193,
        "meta_ephemeris_type": 0,
        "meta_classification_type": "U",
        "meta_norad_cat_id": 29486,
        "meta_element_set_no": 999,
        "meta_rev_at_epoch": 14045,
        "meta_bstar": 0,
        "meta_mean_motion_dot": 1.17e-06,
        "meta_mean_motion_ddot": 0,
        "tle_line1": "1 29486U 06042A   25336.57052781  .00000117  00000+0  00000+0 0  9992",
        "tle_line2": "2 29486  54.6926 159.1445 0107363  51.7169 320.1930  2.00554444140451"
      },
      "geometry": {
        "type": "Point",
        "coordinates": [
          -24.941917089589648,
          5.693207723124763
        ]
      }
    },
    {
      "type": "Feature",
      "properties": {
        "norad_id": 29601,
        "name": "GPS BIIRM-3 (PRN 12)",
        "group": "gnss",
        "lat": -38.550339018233046,
        "lon": 75.71184056968744,
        "alt_km": 20368.6983391039,
        "timestamp": "2025-12-03T06:58:43.477769+00:00",
        "meta_object_name": "GPS BIIRM-3 (PRN 12)",
        "meta_object_id": "2006-052A",
        "meta_epoch": "2025-12-01T23:28:25.341312",
        "meta_mean_motion": 2.0057269,
        "meta_eccentricity": 0.0087496,
        "meta_inclination": 54.9731,
        "meta_ra_of_asc_node": 221.8254,
        "meta_arg_of_pericenter": 87.3285,
        "meta_mean_anomaly": 273.7543,
        "meta_ephemeris_type": 0,
        "meta_classification_type": "U",
        "meta_norad_cat_id": 29601,
        "meta_element_set_no": 999,
        "meta_rev_at_epoch": 13945,
        "meta_bstar": 0,
        "meta_mean_motion_dot": 5.5e-07,
        "meta_mean_motion_ddot": 0,
        "tle_line1": "1 29601U 06052A   25335.97807108  .00000055  00000+0  00000+0 0  9997",
        "tle_line2": "2 29601  54.9731 221.8254 0087496  87.3285 273.7543  2.00572690139454"
      },
      "geometry": {
        "type": "Point",
        "coordinates": [
          75.71184056968744,
          -38.550339018233046
        ]
      }
    },
    {
      "type": "Feature",
      "properties": {
        "norad_id": 32260,
        "name": "GPS BIIRM-4 (PRN 15)",
        "group": "gnss",
        "lat": 5.98345226217875,
        "lon": 92.51030187708783,
        "alt_km": 20081.97512965205,
        "timestamp": "2025-12-03T06:58:43.477781+00:00",
        "meta_object_name": "GPS BIIRM-4 (PRN 15)",
        "meta_object_id": "2007-047A",
        "meta_epoch": "2025-12-02T18:46:05.230272",
        "meta_mean_motion": 2.00564824,
        "meta_eccentricity": 0.0164375,
        "meta_inclination": 53.9483,
        "meta_ra_of_asc_node": 88.1698,
        "meta_arg_of_pericenter": 85.1293,
        "meta_mean_anomaly": 276.722,
        "meta_ephemeris_type": 0,
        "meta_classification_type": "U",
        "meta_norad_cat_id": 32260,
        "meta_element_set_no": 999,
        "meta_rev_at_epoch": 13287,
        "meta_bstar": 0,
        "meta_mean_motion_dot": -1.7e-07,
        "meta_mean_motion_ddot": 0,
        "tle_line1": "1 32260U 07047A   25336.78200498 -.00000017  00000+0  00000+0 0  9995",
        "tle_line2": "2 32260  53.9483  88.1698 0164375  85.1293 276.7220  2.00564824132879"
      },
      "geometry": {
        "type": "Point",
        "coordinates": [
          92.51030187708783,
          5.98345226217875
        ]
      }
    },
    {
      "type": "Feature",
      "properties": {
        "norad_id": 32275,
        "name": "COSMOS 2433 (720)",
        "group": "gnss",
        "lat": 38.24749781390864,
        "lon": -16.602629452714005,
        "alt_km": 19137.747725250658,
        "timestamp": "2025-12-03T06:58:43.477793+00:00",
        "meta_object_name": "COSMOS 2433 (720)",
        "meta_object_id": "2007-052A",
        "meta_epoch": "2025-12-02T07:06:53.876160",
        "meta_mean_motion": 2.13103912,
        "meta_eccentricity": 0.00055743,
        "meta_inclination": 65.6888,
        "meta_ra_of_asc_node": 322.5567,
        "meta_arg_of_pericenter": 252.1881,
        "meta_mean_anomaly": 107.7615,
        "meta_ephemeris_type": 0,
        "meta_classification_type": "U",
        "meta_norad_cat_id": 32275,
        "meta_element_set_no": 999,
        "meta_rev_at_epoch": 14086,
        "meta_bstar": 0,
        "meta_mean_motion_dot": -3.2e-07,
        "meta_mean_motion_ddot": 0,
        "tle_line1": "1 32275U 07052A   25336.29645690 -.00000032  00000+0  00000+0 0  9997",
        "tle_line2": "2 32275  65.6888 322.5567 0005574 252.1881 107.7615  2.13103912140868"
      },
      "geometry": {
        "type": "Point",
        "coordinates": [
          -16.602629452714005,
          38.24749781390864
        ]
      }
    },
    {
      "type": "Feature",
      "properties": {
        "norad_id": 32276,
        "name": "COSMOS 2432 (719)",
        "group": "gnss",
        "lat": -11.532055669550116,
        "lon": -42.648785928437626,
        "alt_km": 19108.742410468592,
        "timestamp": "2025-12-03T06:58:43.477806+00:00",
        "meta_object_name": "COSMOS 2432 (719)",
        "meta_object_id": "2007-052B",
        "meta_epoch": "2025-12-01T01:47:57.960960",
        "meta_mean_motion": 2.13103067,
        "meta_eccentricity": 0.00112256,
        "meta_inclination": 65.7054,
        "meta_ra_of_asc_node": 322.7218,
        "meta_arg_of_pericenter": 311.1678,
        "meta_mean_anomaly": 136.2023,
        "meta_ephemeris_type": 0,
        "meta_classification_type": "U",
        "meta_norad_cat_id": 32276,
        "meta_element_set_no": 999,
        "meta_rev_at_epoch": 14086,
        "meta_bstar": 0,
        "meta_mean_motion_dot": -2.4e-07,
        "meta_mean_motion_ddot": 0,
        "tle_line1": "1 32276U 07052B   25335.07497640 -.00000024  00000+0  00000+0 0  9994",
        "tle_line2": "2 32276  65.7054 322.7218 0011225 311.1678 136.2023  2.13103067140861"
      },
      "geometry": {
        "type": "Point",
        "coordinates": [
          -42.648785928437626,
          -11.532055669550116
        ]
      }
    },
    {
      "type": "Feature",
      "properties": {
        "norad_id": 32384,
        "name": "GPS BIIRM-5 (PRN 29)",
        "group": "gnss",
        "lat": 33.366018271271464,
        "lon": 74.76796787941639,
        "alt_km": 20099.24018425727,
        "timestamp": "2025-12-03T06:58:43.477818+00:00",
        "meta_object_name": "GPS BIIRM-5 (PRN 29)",
        "meta_object_id": "2007-062A",
        "meta_epoch": "2025-12-02T20:24:02.738016",
        "meta_mean_motion": 2.00576658,
        "meta_eccentricity": 0.0032212,
        "meta_inclination": 55.191,
        "meta_ra_of_asc_node": 282.0426,
        "meta_arg_of_pericenter": 162.849,
        "meta_mean_anomaly": 16.9412,
        "meta_ephemeris_type": 0,
        "meta_classification_type": "U",
        "meta_norad_cat_id": 32384,
        "meta_element_set_no": 999,
        "meta_rev_at_epoch": 13157,
        "meta_bstar": 0,
        "meta_mean_motion_dot": -4.3e-07,
        "meta_mean_motion_ddot": 0,
        "tle_line1": "1 32384U 07062A   25336.85003169 -.00000043  00000+0  00000+0 0  9992",
        "tle_line2": "2 32384  55.1910 282.0426 0032212 162.8490  16.9412  2.00576658131576"
      },
      "geometry": {
        "type": "Point",
        "coordinates": [
          74.76796787941639,
          33.366018271271464
        ]
      }
    }
  ]
}